{
  "type": "FeatureCollection",
  "features": [
    {
      "type": "Feature",
      "id": "pt-campus-gate",
      "properties": {
        "name": "校园入口",
        "layer": "兴趣点",
        "kind": "point"
      },
      "geometry": {
        "type": "Point",
        "coordinates": [
          180,
          760
        ]
      }
    },
    {
      "type": "Feature",
      "id": "ln-main-road",
      "properties": {
        "name": "主干道",
        "layer": "道路",
        "kind": "line"
      },
      "geometry": {
        "type": "LineString",
        "coordinates": [
          [
            90,
            640
          ],
          [
            260,
            610
          ],
          [
            430,
            580
          ],
          [
            720,
            520
          ],
          [
            910,
            460
          ]
        ]
      }
    },
    {
      "type": "Feature",
      "id": "pg-lake",
      "properties": {
        "name": "中心湖",
        "layer": "水域",
        "kind": "polygon"
      },
      "geometry": {
        "type": "Polygon",
        "coordinates": [
          [
            [
              430,
              720
            ],
            [
              610,
              690
            ],
            [
              680,
              800
            ],
            [
              600,
              910
            ],
            [
              420,
              880
            ],
            [
              360,
              790
            ],
            [
              430,
              720
            ]
          ]
        ]
      }
    },
    {
      "type": "Feature",
      "id": "pg-teaching-area",
      "properties": {
        "name": "教学区",
        "layer": "功能区",
        "kind": "polygon"
      },
      "geometry": {
        "type": "Polygon",
        "coordinates": [
          [
            [
              150,
              180
            ],
            [
              430,
              150
            ],
            [
              490,
              330
            ],
            [
              390,
              480
            ],
            [
              160,
              440
            ],
            [
              90,
              260
            ],
            [
              150,
              180
            ]
          ]
        ]
      }
    },
    {
      "type": "Feature",
      "properties": {
        "name": "新要素",
        "layer": "兴趣点",
        "kind": "polygon"
      },
      "geometry": {
        "type": "Polygon",
        "coordinates": [
          [
            [
              796.3254429842076,
              882.7880025856934
            ],
            [
              866.5058434102546,
              745.6172199347834
            ],
            [
              751.6651881676322,
              761.5673109407031
            ],
            [
              796.3254429842076,
              882.7880025856934
            ]
          ]
        ]
      },
      "id": "ft-611117ba1c"
    },
    {
      "type": "Feature",
      "properties": {
        "name": "新要素",
        "layer": "兴趣点",
        "kind": "point"
      },
      "geometry": {
        "type": "Point",
        "coordinates": [
          193.857653146663,
          690.4310961329122
        ]
      },
      "id": "ft-e0c6d8f3cf"
    },
    {
      "type": "Feature",
      "properties": {
        "name": "新要素",
        "layer": "兴趣点",
        "kind": "point"
      },
      "geometry": {
        "type": "Point",
        "coordinates": [
          245.56311488075713,
          723.0871772281296
        ]
      },
      "id": "ft-8ca08f245f"
    },
    {
      "type": "Feature",
      "properties": {
        "name": "新要素",
        "layer": "兴趣点",
        "kind": "point"
      },
      "geometry": {
        "type": "Point",
        "coordinates": [
          348.9740383489454,
          671.3817154940355
        ]
      },
      "id": "ft-455c311048"
    },
    {
      "type": "Feature",
      "properties": {
        "name": "新要素",
        "layer": "兴趣点",
        "kind": "polygon"
      },
      "geometry": {
        "type": "Polygon",
        "coordinates": [
          [
            [
              490.4837230948872,
              546.2000712957024
            ],
            [
              558.51722537659,
              518.9866703830212
            ],
            [
              645.6001082971695,
              695.8737763154485
            ],
            [
              490.4837230948872,
              546.2000712957024
            ]
          ]
        ]
      },
      "id": "ft-0427c7a4e7"
    }
  ]
}