{"type": "FeatureCollection", "features": [{"type": "Feature", "id": "city-0", "properties": {"name": "北京", "capital": true}, "geometry": {"type": "Point", "coordinates": [116.4074, 39.9042]}}, {"type": "Feature", "id": "city-1", "properties": {"name": "天津", "capital": true}, "geometry": {"type": "Point", "coordinates": [117.1902, 39.1256]}}, {"type": "Feature", "id": "city-2", "properties": {"name": "上海", "capital": true}, "geometry": {"type": "Point", "coordinates": [121.4737, 31.2304]}}, {"type": "Feature", "id": "city-3", "properties": {"name": "重庆", "capital": true}, "geometry": {"type": "Point", "coordinates": [106.5516, 29.563]}}, {"type": "Feature", "id": "city-4", "properties": {"name": "哈尔滨", "capital": true}, "geometry": {"type": "Point", "coordinates": [126.5349, 45.8033]}}, {"type": "Feature", "id": "city-5", "properties": {"name": "长春", "capital": true}, "geometry": {"type": "Point", "coordinates": [125.3235, 43.8171]}}, {"type": "Feature", "id": "city-6", "properties": {"name": "沈阳", "capital": true}, "geometry": {"type": "Point", "coordinates": [123.4291, 41.7968]}}, {"type": "Feature", "id": "city-7", "properties": {"name": "呼和浩特", "capital": true}, "geometry": {"type": "Point", "coordinates": [111.751, 40.8426]}}, {"type": "Feature", "id": "city-8", "properties": {"name": "石家庄", "capital": true}, "geometry": {"type": "Point", "coordinates": [114.5149, 38.0428]}}, {"type": "Feature", "id": "city-9", "properties": {"name": "太原", "capital": true}, "geometry": {"type": "Point", "coordinates": [112.5489, 37.8706]}}, {"type": "Feature", "id": "city-10", "properties": {"name": "济南", "capital": true}, "geometry": {"type": "Point", "coordinates": [117.1205, 36.6512]}}, {"type": "Feature", "id": "city-11", "properties": {"name": "郑州", "capital": true}, "geometry": {"type": "Point", "coordinates": [113.6254, 34.7466]}}, {"type": "Feature", "id": "city-12", "properties": {"name": "西安", "capital": true}, "geometry": {"type": "Point", "coordinates": [108.9398, 34.3416]}}, {"type": "Feature", "id": "city-13", "properties": {"name": "兰州", "capital": true}, "geometry": {"type": "Point", "coordinates": [103.8343, 36.0611]}}, {"type": "Feature", "id": "city-14", "properties": {"name": "西宁", "capital": true}, "geometry": {"type": "Point", "coordinates": [101.7782, 36.6171]}}, {"type": "Feature", "id": "city-15", "properties": {"name": "银川", "capital": true}, "geometry": {"type": "Point", "coordinates": [106.2309, 38.4872]}}, {"type": "Feature", "id": "city-16", "properties": {"name": "乌鲁木齐", "capital": true}, "geometry": {"type": "Point", "coordinates": [87.6168, 43.8256]}}, {"type": "Feature", "id": "city-17", "properties": {"name": "拉萨", "capital": true}, "geometry": {"type": "Point", "coordinates": [91.1409, 29.6456]}}, {"type": "Feature", "id": "city-18", "properties": {"name": "成都", "capital": true}, "geometry": {"type": "Point", "coordinates": [104.0665, 30.5723]}}, {"type": "Feature", "id": "city-19", "properties": {"name": "昆明", "capital": true}, "geometry": {"type": "Point", "coordinates": [102.8329, 24.8801]}}, {"type": "Feature", "id": "city-20", "properties": {"name": "贵阳", "capital": true}, "geometry": {"type": "Point", "coordinates": [106.6302, 26.647]}}, {"type": "Feature", "id": "city-21", "properties": {"name": "南宁", "capital": true}, "geometry": {"type": "Point", "coordinates": [108.3665, 22.817]}}, {"type": "Feature", "id": "city-22", "properties": {"name": "海口", "capital": true}, "geometry": {"type": "Point", "coordinates": [110.1983, 20.0444]}}, {"type": "Feature", "id": "city-23", "properties": {"name": "广州", "capital": true}, "geometry": {"type": "Point", "coordinates": [113.2644, 23.1291]}}, {"type": "Feature", "id": "city-24", "properties": {"name": "长沙", "capital": true}, "geometry": {"type": "Point", "coordinates": [112.9388, 28.2282]}}, {"type": "Feature", "id": "city-25", "properties": {"name": "武汉", "capital": true}, "geometry": {"type": "Point", "coordinates": [114.3055, 30.5928]}}, {"type": "Feature", "id": "city-26", "properties": {"name": "南京", "capital": true}, "geometry": {"type": "Point", "coordinates": [118.7969, 32.0603]}}, {"type": "Feature", "id": "city-27", "properties": {"name": "杭州", "capital": true}, "geometry": {"type": "Point", "coordinates": [120.1551, 30.2741]}}, {"type": "Feature", "id": "city-28", "properties": {"name": "合肥", "capital": true}, "geometry": {"type": "Point", "coordinates": [117.2272, 31.8206]}}, {"type": "Feature", "id": "city-29", "properties": {"name": "福州", "capital": true}, "geometry": {"type": "Point", "coordinates": [119.2965, 26.0745]}}, {"type": "Feature", "id": "city-30", "properties": {"name": "南昌", "capital": true}, "geometry": {"type": "Point", "coordinates": [115.8582, 28.682]}}, {"type": "Feature", "id": "city-31", "properties": {"name": "台北", "capital": true}, "geometry": {"type": "Point", "coordinates": [121.5654, 25.033]}}, {"type": "Feature", "id": "city-32", "properties": {"name": "香港", "capital": true}, "geometry": {"type": "Point", "coordinates": [114.1694, 22.3193]}}, {"type": "Feature", "id": "city-33", "properties": {"name": "澳门", "capital": true}, "geometry": {"type": "Point", "coordinates": [113.5491, 22.1987]}}]}